     3.00           N: GNSS NAV DATA    M: Mixed            RINEX VERSION / TYPE
RTKCONV demo5 b34f.1                    20231128 184918 UTC PGM / RUN BY / DATE 
format: u-blox UBX                                          COMMENT             
log: C:\Users\oo\Desktop\gnss_k\log_gnss_03062023-08-32-45.uCOMMENT             
                                                            END OF HEADER       
E31 2023 11 27 14 20 00 -.107140513137D-04 -.596855898038D-12  .000000000000D+00
      .102000000000D+03  .158906250000D+03  .254260590974D-08  .184517013088D+01
      .744126737118D-05  .218925415538D-03  .135097652674D-04  .544063494301D+04
      .138000000000D+06 -.689178705215D-07 -.309675975307D+01  .167638063431D-07
      .968174517703D+00  .517500000000D+02 -.751945241172D+00 -.513485674454D-08
     -.388230457071D-09  .513000000000D+03  .229000000000D+04  .000000000000D+00
      .312000000000D+01  .000000000000D+00  .651925802231D-08  .698491930962D-08
      .138685000000D+06  .000000000000D+00
E09 2023 11 27 14 20 00 -.242704409175D-03 -.135713662530D-10  .000000000000D+00
      .102000000000D+03  .252812500000D+02  .348728811669D-08  .167576174643D+01
      .130571424961D-05  .218995381147D-03  .615976750851D-05  .544059959602D+04
      .138000000000D+06 -.409781932831D-07  .108676927653D+01 -.447034835815D-07
      .965344021379D+00  .210531250000D+03  .741301709003D+00 -.551272962732D-08
      .675028117631D-09  .513000000000D+03  .229000000000D+04  .000000000000D+00
      .312000000000D+01  .000000000000D+00  .279396772385D-08  .302679836750D-08
      .138685000000D+06  .000000000000D+00
E24 2023 11 27 14 20 00 -.454738736153D-03 -.209894324144D-10  .000000000000D+00
      .102000000000D+03  .141343750000D+03  .275154318425D-08 -.378165767391D+00
      .663287937641D-05  .640889862552D-03  .121966004372D-04  .544063724518D+04
      .138000000000D+06  .931322574615D-08 -.309337419637D+01  .540167093277D-07
      .966048637335D+00  .776875000000D+02  .706549513640D+00 -.521557439247D-08
     -.354657630057D-09  .513000000000D+03  .229000000000D+04  .000000000000D+00
      .312000000000D+01  .000000000000D+00 -.209547579288D-08 -.302679836750D-08
      .138685000000D+06  .000000000000D+00
E24 2023 11 27 14 30 00 -.454751250800D-03 -.209752215596D-10  .000000000000D+00
      .103000000000D+03  .143468750000D+03  .274475718730D-08 -.303885118835D+00
      .673905014992D-05  .641162157990D-03  .122319906950D-04  .544063780403D+04
      .138600000000D+06  .372529029846D-08 -.309337731384D+01  .558793544769D-07
      .966048453007D+00  .769687500000D+02  .706653205274D+00 -.521235997286D-08
     -.358229207399D-09  .513000000000D+03  .229000000000D+04  .000000000000D+00
      .312000000000D+01  .000000000000D+00 -.209547579288D-08 -.302679836750D-08
      .139285000000D+06  .000000000000D+00
E31 2023 11 27 14 30 00 -.107145169750D-04 -.596855898038D-12  .000000000000D+00
      .103000000000D+03  .158406250000D+03  .254046296334D-08  .191911187106D+01
      .741705298424D-05  .218794564717D-03  .135712325573D-04  .544063526535D+04
      .138600000000D+06 -.651925802231D-07 -.309676280618D+01  .111758708954D-07
      .968174302654D+00  .505625000000D+02 -.751502752340D+00 -.513592821774D-08
     -.392516349881D-09  .513000000000D+03  .229000000000D+04  .000000000000D+00
      .312000000000D+01  .000000000000D+00  .651925802231D-08  .698491930962D-08
      .139285000000D+06  .000000000000D+00
E05 2023 11 27 14 30 00  .469499244355D-02  .372324393538D-11  .000000000000D+00
      .103000000000D+03  .271250000000D+02  .360407869577D-08 -.371365426346D+00
      .132434070110D-05  .122384866700D-03  .624544918537D-05  .544059596825D+04
      .138600000000D+06 -.353902578354D-07  .108760127754D+01  .484287738800D-07
      .959439884431D+00  .204781250000D+03  .205288182729D+01 -.563202031054D-08
      .650384233971D-09  .513000000000D+03  .229000000000D+04  .000000000000D+00
      .312000000000D+01  .000000000000D+00  .442378222942D-08  .488944351673D-08
      .139285000000D+06  .000000000000D+00
